[{"OBJECT_NAME":"STARLINK-5592","OBJECT_ID":"2023-028A","EPOCH":"2026-03-09T22:22:42.987072","MEAN_MOTION":14.98334271,"ECCENTRICITY":0.00031442,"INCLINATION":69.999,"RA_OF_ASC_NODE":243.9567,"ARG_OF_PERICENTER":269.1505,"MEAN_ANOMALY":90.9294,"EPHEMERIS_TYPE":0,"CLASSIFICATION_TYPE":"U","NORAD_CAT_ID":55741,"ELEMENT_SET_NO":999,"REV_AT_EPOCH":16626,"BSTAR":9.787649e-6,"MEAN_MOTION_DOT":2.4e-7,"MEAN_MOTION_DDOT":0},{"OBJECT_NAME":"PEGASUS R\/B","OBJECT_ID":"2003-004B","EPOCH":"2026-03-09T09:44:27.528288","MEAN_MOTION":14.94290093,"ECCENTRICITY":0.00174311,"INCLINATION":40.0025,"RA_OF_ASC_NODE":325.3337,"ARG_OF_PERICENTER":130.6865,"MEAN_ANOMALY":229.5444,"EPHEMERIS_TYPE":0,"CLASSIFICATION_TYPE":"U","NORAD_CAT_ID":27652,"ELEMENT_SET_NO":999,"REV_AT_EPOCH":25440,"BSTAR":0.00025016623,"MEAN_MOTION_DOT":2.598e-5,"MEAN_MOTION_DDOT":0}]
